{
  "type": "FeatureCollection",
  "features": [
    {
      "type": "Feature",
      "properties": {
        "norad_id": 29904,
        "name": "FENGYUN 1C DEB",
        "group": "fengyun-1c-debris",
        "lat": -60.376660530418825,
        "lon": 55.48452570516033,
        "alt_km": 612.1091476489646,
        "timestamp": "2025-12-26T11:25:45.467089+00:00",
        "meta_object_name": "FENGYUN 1C DEB",
        "meta_object_id": "1999-025HA",
        "meta_epoch": "2025-12-26T01:43:58.791072",
        "meta_mean_motion": 14.44527645,
        "meta_eccentricity": 0.0207411,
        "meta_inclination": 99.0402,
        "meta_ra_of_asc_node": 38.7952,
        "meta_arg_of_pericenter": 278.89,
        "meta_mean_anomaly": 78.886,
        "meta_ephemeris_type": 0,
        "meta_classification_type": "U",
        "meta_norad_cat_id": 29904,
        "meta_element_set_no": 999,
        "meta_rev_at_epoch": 99256,
        "meta_bstar": 0.00038919,
        "meta_mean_motion_dot": 1.687e-05,
        "meta_mean_motion_ddot": 0,
        "tle_line1": "1 29904U 99025HA  25360.07220823  .00001687  00000+0  38919-3 0  9993",
        "tle_line2": "2 29904  99.0402  38.7952 0207411 278.8900  78.8860 14.44527645992563"
      },
      "geometry": {
        "type": "Point",
        "coordinates": [
          55.48452570516033,
          -60.376660530418825
        ]
      }
    },
    {
      "type": "Feature",
      "properties": {
        "norad_id": 29906,
        "name": "FENGYUN 1C DEB",
        "group": "fengyun-1c-debris",
        "lat": 67.53837360645437,
        "lon": -53.97873693089358,
        "alt_km": 693.8122771565077,
        "timestamp": "2025-12-26T11:25:45.467097+00:00",
        "meta_object_name": "FENGYUN 1C DEB",
        "meta_object_id": "1999-025HC",
        "meta_epoch": "2025-12-26T02:38:26.611008",
        "meta_mean_motion": 14.49857128,
        "meta_eccentricity": 0.0036167,
        "meta_inclination": 98.7049,
        "meta_ra_of_asc_node": 103.8917,
        "meta_arg_of_pericenter": 109.8395,
        "meta_mean_anomaly": 250.6702,
        "meta_ephemeris_type": 0,
        "meta_classification_type": "U",
        "meta_norad_cat_id": 29906,
        "meta_element_set_no": 999,
        "meta_rev_at_epoch": 98351,
        "meta_bstar": 0.0021172,
        "meta_mean_motion_dot": 8.203e-05,
        "meta_mean_motion_ddot": 0,
        "tle_line1": "1 29906U 99025HC  25360.11003022  .00008203  00000+0  21172-2 0  9993",
        "tle_line2": "2 29906  98.7049 103.8917 0036167 109.8395 250.6702 14.49857128983519"
      },
      "geometry": {
        "type": "Point",
        "coordinates": [
          -53.97873693089358,
          67.53837360645437
        ]
      }
    },
    {
      "type": "Feature",
      "properties": {
        "norad_id": 29907,
        "name": "FENGYUN 1C DEB",
        "group": "fengyun-1c-debris",
        "lat": 3.9894576712362353,
        "lon": -111.99617641500002,
        "alt_km": 805.7138293193184,
        "timestamp": "2025-12-26T11:25:45.467106+00:00",
        "meta_object_name": "FENGYUN 1C DEB",
        "meta_object_id": "1999-025HD",
        "meta_epoch": "2025-12-26T03:55:22.734048",
        "meta_mean_motion": 14.11709581,
        "meta_eccentricity": 0.0084897,
        "meta_inclination": 99.1106,
        "meta_ra_of_asc_node": 67.0451,
        "meta_arg_of_pericenter": 212.2248,
        "meta_mean_anomaly": 175.547,
        "meta_ephemeris_type": 0,
        "meta_classification_type": "U",
        "meta_norad_cat_id": 29907,
        "meta_element_set_no": 999,
        "meta_rev_at_epoch": 96788,
        "meta_bstar": 0.0013463,
        "meta_mean_motion_dot": 2.49e-05,
        "meta_mean_motion_ddot": 0,
        "tle_line1": "1 29907U 99025HD  25360.16345757  .00002490  00000+0  13463-2 0  9999",
        "tle_line2": "2 29907  99.1106  67.0451 0084897 212.2248 175.5470 14.11709581967889"
      },
      "geometry": {
        "type": "Point",
        "coordinates": [
          -111.99617641500002,
          3.9894576712362353
        ]
      }
    },
    {
      "type": "Feature",
      "properties": {
        "norad_id": 29909,
        "name": "FENGYUN 1C DEB",
        "group": "fengyun-1c-debris",
        "lat": 78.51185924046734,
        "lon": -26.878003786926666,
        "alt_km": 716.6848967888582,
        "timestamp": "2025-12-26T11:25:45.467115+00:00",
        "meta_object_name": "FENGYUN 1C DEB",
        "meta_object_id": "1999-025HF",
        "meta_epoch": "2025-12-25T20:41:19.861152",
        "meta_mean_motion": 14.55335796,
        "meta_eccentricity": 0.00382049,
        "meta_inclination": 98.6343,
        "meta_ra_of_asc_node": 104.101,
        "meta_arg_of_pericenter": 333.6026,
        "meta_mean_anomaly": 147.6487,
        "meta_ephemeris_type": 0,
        "meta_classification_type": "U",
        "meta_norad_cat_id": 29909,
        "meta_element_set_no": 999,
        "meta_rev_at_epoch": 98596,
        "meta_bstar": 0.0021306216,
        "meta_mean_motion_dot": 9.293e-05,
        "meta_mean_motion_ddot": 0,
        "tle_line1": "1 29909U 99025HF  25359.86203543  .00009293  00000+0  21306-2 0  9995",
        "tle_line2": "2 29909  98.6343 104.1010 0038204 333.6026 147.6487 14.55335796985963"
      },
      "geometry": {
        "type": "Point",
        "coordinates": [
          -26.878003786926666,
          78.51185924046734
        ]
      }
    },
    {
      "type": "Feature",
      "properties": {
        "norad_id": 29911,
        "name": "FENGYUN 1C DEB",
        "group": "fengyun-1c-debris",
        "lat": -66.00926925469366,
        "lon": -156.80522542515683,
        "alt_km": 850.1546999262218,
        "timestamp": "2025-12-26T11:25:45.467124+00:00",
        "meta_object_name": "FENGYUN 1C DEB",
        "meta_object_id": "1999-025HH",
        "meta_epoch": "2025-12-26T02:03:38.390400",
        "meta_mean_motion": 14.1889286,
        "meta_eccentricity": 0.0027421,
        "meta_inclination": 98.7142,
        "meta_ra_of_asc_node": 42.9704,
        "meta_arg_of_pericenter": 114.0239,
        "meta_mean_anomaly": 300.4238,
        "meta_ephemeris_type": 0,
        "meta_classification_type": "U",
        "meta_norad_cat_id": 29911,
        "meta_element_set_no": 999,
        "meta_rev_at_epoch": 97620,
        "meta_bstar": 0.00067993,
        "meta_mean_motion_dot": 1.378e-05,
        "meta_mean_motion_ddot": 0,
        "tle_line1": "1 29911U 99025HH  25360.08586100  .00001378  00000+0  67993-3 0  9996",
        "tle_line2": "2 29911  98.7142  42.9704 0027421 114.0239 300.4238 14.18892860976208"
      },
      "geometry": {
        "type": "Point",
        "coordinates": [
          -156.80522542515683,
          -66.00926925469366
        ]
      }
    },
    {
      "type": "Feature",
      "properties": {
        "norad_id": 29912,
        "name": "FENGYUN 1C DEB",
        "group": "fengyun-1c-debris",
        "lat": -39.19008191525895,
        "lon": 105.4750637817633,
        "alt_km": 778.3535079120575,
        "timestamp": "2025-12-26T11:25:45.467133+00:00",
        "meta_object_name": "FENGYUN 1C DEB",
        "meta_object_id": "1999-025HJ",
        "meta_epoch": "2025-12-26T02:12:22.154112",
        "meta_mean_motion": 14.43160194,
        "meta_eccentricity": 0.0043204,
        "meta_inclination": 98.7373,
        "meta_ra_of_asc_node": 97.8783,
        "meta_arg_of_pericenter": 180.5761,
        "meta_mean_anomaly": 304.041,
        "meta_ephemeris_type": 0,
        "meta_classification_type": "U",
        "meta_norad_cat_id": 29912,
        "meta_element_set_no": 999,
        "meta_rev_at_epoch": 98231,
        "meta_bstar": 0.0020752,
        "meta_mean_motion_dot": 7.01e-05,
        "meta_mean_motion_ddot": 0,
        "tle_line1": "1 29912U 99025HJ  25360.09192308  .00007010  00000+0  20752-2 0  9991",
        "tle_line2": "2 29912  98.7373  97.8783 0043204 180.5761 304.0410 14.43160194982313"
      },
      "geometry": {
        "type": "Point",
        "coordinates": [
          105.4750637817633,
          -39.19008191525895
        ]
      }
    },
    {
      "type": "Feature",
      "properties": {
        "norad_id": 29913,
        "name": "FENGYUN 1C DEB",
        "group": "fengyun-1c-debris",
        "lat": 70.82452468610536,
        "lon": -154.63722453551466,
        "alt_km": 887.0784910589091,
        "timestamp": "2025-12-26T11:25:45.467142+00:00",
        "meta_object_name": "FENGYUN 1C DEB",
        "meta_object_id": "1999-025HK",
        "meta_epoch": "2025-12-25T23:06:43.307136",
        "meta_mean_motion": 14.07396124,
        "meta_eccentricity": 0.0062005,
        "meta_inclination": 98.7881,
        "meta_ra_of_asc_node": 358.4512,
        "meta_arg_of_pericenter": 233.6343,
        "meta_mean_anomaly": 155.1788,
        "meta_ephemeris_type": 0,
        "meta_classification_type": "U",
        "meta_norad_cat_id": 29913,
        "meta_element_set_no": 999,
        "meta_rev_at_epoch": 97151,
        "meta_bstar": 0.00022178,
        "meta_mean_motion_dot": 3.36e-06,
        "meta_mean_motion_ddot": 0,
        "tle_line1": "1 29913U 99025HK  25359.96300124  .00000336  00000+0  22178-3 0  9992",
        "tle_line2": "2 29913  98.7881 358.4512 0062005 233.6343 155.1788 14.07396124971517"
      },
      "geometry": {
        "type": "Point",
        "coordinates": [
          -154.63722453551466,
          70.82452468610536
        ]
      }
    }
  ]
}